NORAD_CAT_ID,OBJECT_NAME,OBJECT_TYPE,EPOCH,MEAN_MOTION,ECCENTRICITY,INCLINATION,RA_OF_ASC_NODE,ARG_OF_PERICENTER,MEAN_ANOMALY,BSTAR,MEAN_MOTION_DOT,MEAN_MOTION_DDOT,TLE_LINE0,TLE_LINE1,TLE_LINE2,SEMIMAJOR_AXIS,PERIOD,APOGEE,PERIGEE,DECAYED
51958.0,STARLINK-3692,PAYLOAD,2024-04-04 21:19:52,15.08030966,0.0001296,53.0546,305.0275,89.3071,270.8068,0.00016649,2.307e-05,0.0,0 STARLINK-3692,1 51958U 22025C   24095.88880546  .00002307  00000-0  16649-3 0  9997,2 51958  53.0546 305.0275 0001296  89.3071 270.8068 15.08030966114916,6920.354,95.489,543.116,541.323,0.0
51958.0,STARLINK-3692,PAYLOAD,2024-04-05 13:14:14,15.08033058,0.0001371,53.0548,302.0451,86.7223,273.3924,0.00012372,1.641e-05,0.0,0 STARLINK-3692,1 51958U 22025C   24096.55155495  .00001641  00000-0  12372-3 0  9999,2 51958  53.0548 302.0451 0001371  86.7223 273.3924 15.08033058115011,6920.348,95.489,543.162,541.264,0.0
51958.0,STARLINK-3692,PAYLOAD,2024-04-05 21:11:25,15.08035874,0.0001395,53.0549,300.5534,85.5513,274.5636,0.00012682,1.689e-05,0.0,0 STARLINK-3692,1 51958U 22025C   24096.88292866  .00001689  00000-0  12682-3 0  9995,2 51958  53.0549 300.5534 0001395  85.5513 274.5636 15.08035874115068,6920.339,95.488,543.17,541.239,0.0
51958.0,STARLINK-3692,PAYLOAD,2024-04-06 13:05:46,15.08034931,0.000142,53.0546,297.5706,85.3438,274.7714,0.00017722,2.474e-05,0.0,0 STARLINK-3692,1 51958U 22025C   24097.54567857  .00002474  00000-0  17722-3 0  9997,2 51958  53.0546 297.5706 0001420  85.3438 274.7714 15.08034931115167,6920.342,95.489,543.19,541.225,0.0
51958.0,STARLINK-3692,PAYLOAD,2024-04-06 22:38:23,15.08037785,0.000144,53.0547,295.7807,85.4935,274.6219,0.00017675,2.467e-05,0.0,0 STARLINK-3692,1 51958U 22025C   24097.94332636  .00002467  00000-0  17675-3 0  9995,2 51958  53.0547 295.7807 0001440  85.4935 274.6219 15.08037785115221,6920.334,95.488,543.195,541.202,0.0
51958.0,STARLINK-3692,PAYLOAD,2024-04-07 19:19:03,15.0802895,0.0001501,53.0542,291.9028,84.8675,275.2486,3.4974e-05,2.59e-06,0.0,0 STARLINK-3692,1 51958U 22025C   24098.80490629  .00000259  00000-0  34974-4 0  9997,2 51958  53.0542 291.9028 0001501  84.8675 275.2486 15.08028950116443,6920.361,95.489,543.264,541.187,0.0
51958.0,STARLINK-3692,PAYLOAD,2024-04-07 22:29:56,15.08029874,0.0001519,53.0542,291.3063,84.2212,275.8951,3.5362e-05,2.65e-06,0.0,0 STARLINK-3692,1 51958U 22025C   24098.93745578  .00000265  00000-0  35362-4 0  9996,2 51958  53.0542 291.3063 0001519  84.2212 275.8951 15.08029874115376,6920.358,95.489,543.274,541.172,0.0
51958.0,STARLINK-3692,PAYLOAD,2024-04-08 12:48:51,15.0803789,0.0001444,53.0528,288.6195,90.6807,269.4348,8.83e-05,1.089e-05,0.0,0 STARLINK-3692,1 51958U 22025C   24099.53392452  .00001089  00000-0  88300-4 0  9997,2 51958  53.0528 288.6195 0001444  90.6807 269.4348 15.08037890116550,6920.333,95.488,543.198,541.199,0.0
51958.0,STARLINK-3692,PAYLOAD,2024-04-08 19:10:35,15.08041044,0.0001446,53.0523,287.4271,86.0198,274.0957,0.00011796,1.551e-05,0.0,0 STARLINK-3692,1 51958U 22025C   24099.79902064  .00001551  00000-0  11796-3 0  9999,2 51958  53.0523 287.4271 0001446  86.0198 274.0957 15.08041044115509,6920.324,95.488,543.189,541.188,0.0
51958.0,STARLINK-3692,PAYLOAD,2024-04-09 12:40:23,15.08030799,6.37e-05,53.0519,284.1464,338.4318,21.6645,7.2928e-05,8.5e-06,0.0,0 STARLINK-3692,1 51958U 22025C   24100.52805362  .00000850  00000-0  72928-4 0  9992,2 51958  53.0519 284.1464 0000637 338.4318  21.6645 15.08030799116709,6920.355,95.489,542.661,541.779,0.0
51958.0,STARLINK-3692,PAYLOAD,2024-04-09 19:02:08,15.08024619,4.5e-05,53.051,282.9496,42.7887,317.3137,7.9306e-05,9.49e-06,0.0,0 STARLINK-3692,1 51958U 22025C   24100.79315668  .00000949  00000-0  79306-4 0  9992,2 51958  53.0510 282.9496 0000450  42.7887 317.3137 15.08024619115658,6920.374,95.489,542.55,541.927,0.0
51958.0,STARLINK-3692,PAYLOAD,2024-04-10 12:31:56,15.08029467,0.0001282,53.0593,279.6708,88.8752,271.2384,4.1239e-05,3.56e-06,0.0,0 STARLINK-3692,1 51958U 22025C   24101.52218026  .00000356  00000-0  41239-4 0  9990,2 51958  53.0593 279.6708 0001282  88.8752 271.2384 15.08029467115764,6920.359,95.489,543.111,541.337,0.0
51958.0,STARLINK-3692,PAYLOAD,2024-04-10 18:53:40,15.08034919,0.0001304,53.0603,278.4793,86.0739,274.04,0.000101,1.287e-05,0.0,0 STARLINK-3692,1 51958U 22025C   24101.78727532  .00001287  00000-0  10100-3 0  9991,2 51958  53.0603 278.4793 0001304  86.0739 274.0400 15.08034919116890,6920.342,95.489,543.11,541.305,0.0
51958.0,STARLINK-3692,PAYLOAD,2024-04-11 21:56:04,15.08050111,0.0001477,53.0535,273.4086,127.792,232.3203,0.00031526,4.628e-05,0.0,0 STARLINK-3692,1 51958U 22025C   24102.91393582  .00004628  00000-0  31526-3 0  9998,2 51958  53.0535 273.4086 0001477 127.7920 232.3203 15.08050111115978,6920.296,95.488,543.183,541.139,0.0
51958.0,STARLINK-3692,PAYLOAD,2024-04-12 10:39:34,15.08032886,0.0002169,53.0549,271.0244,85.3024,274.8214,3.5306e-05,2.63e-06,0.0,0 STARLINK-3692,1 51958U 22025C   24103.44414730  .00000263  00000-0  35306-4 0  9998,2 51958  53.0549 271.0244 0002169  85.3024 274.8214 15.08032886117149,6920.349,95.489,543.715,540.712,0.0
51958.0,STARLINK-3692,PAYLOAD,2024-04-12 15:25:53,15.08021611,0.0001272,53.0552,270.1292,60.9018,299.2099,-0.00010228,-1.877e-05,0.0,0 STARLINK-3692,1 51958U 22025C   24103.64297836 -.00001877  00000-0 -10228-3 0  9995,2 51958  53.0552 270.1292 0001272  60.9018 299.2099 15.08021611117171,6920.383,95.489,543.128,541.368,0.0
51958.0,STARLINK-3692,PAYLOAD,2024-04-13 10:31:07,15.0802914,0.0001207,53.0551,266.5469,93.4969,266.6159,-0.00015549,-2.706e-05,0.0,0 STARLINK-3692,1 51958U 22025C   24104.43827698 -.00002706  00000-0 -15549-3 0  9991,2 51958  53.0551 266.5469 0001207  93.4969 266.6159 15.08029140116202,6920.36,95.489,543.06,541.39,0.0
51958.0,STARLINK-3692,PAYLOAD,2024-04-13 18:28:17,15.08033527,0.0001432,53.0555,265.0574,76.7147,283.4002,2.1819e-05,5.4e-07,0.0,0 STARLINK-3692,1 51958U 22025C   24104.76965097  .00000054  00000-0  21819-4 0  9993,2 51958  53.0555 265.0574 0001432  76.7147 283.4002 15.08033527117343,6920.347,95.489,543.203,541.221,0.0
51958.0,STARLINK-3692,PAYLOAD,2024-04-14 10:22:40,15.08028329,0.0001521,53.0559,262.0753,71.3504,288.7651,0.00027344,3.973e-05,0.0,0 STARLINK-3692,1 51958U 22025C   24105.43240773  .00003973  00000-0  27344-3 0  9996,2 51958  53.0559 262.0753 0001521  71.3504 288.7651 15.08028329117443,6920.362,95.489,543.28,541.175,0.0
51958.0,STARLINK-3692,PAYLOAD,2024-04-14 16:44:24,15.08034951,0.0001767,53.0559,260.8833,62.4454,297.6715,0.00039771,5.912e-05,0.0,0 STARLINK-3692,1 51958U 22025C   24105.69750734  .00005912  00000-0  39771-3 0  9999,2 51958  53.0559 260.8833 0001767  62.4454 297.6715 15.08034951116396,6920.342,95.489,543.43,540.984,0.0
51958.0,STARLINK-3692,PAYLOAD,2024-04-15 10:14:09,15.08076347,0.0001177,53.055,257.5973,109.0895,251.0222,0.00049769,7.48e-05,0.0,0 STARLINK-3692,1 51958U 22025C   24106.42650428  .00007480  00000-0  49769-3 0  9990,2 51958  53.0550 257.5973 0001177 109.0895 251.0222 15.08076347117592,6920.216,95.486,542.895,541.266,0.0
51958.0,STARLINK-3692,PAYLOAD,2024-04-15 19:46:47,15.08043269,0.0002128,53.0567,255.8112,285.2324,74.8431,-0.00010038,-1.849e-05,0.0,0 STARLINK-3692,1 51958U 22025C   24106.82415847 -.00001849  00000-0 -10038-3 0  9990,2 51958  53.0567 255.8112 0002128 285.2324  74.8431 15.08043269117654,6920.317,95.488,543.654,540.709,0.0
51958.0,STARLINK-3692,PAYLOAD,2024-04-16 13:16:36,15.08032194,0.0001423,53.0557,252.5299,88.9569,271.1584,0.00088278,0.00013485,0.0,0 STARLINK-3692,1 51958U 22025C   24107.55319977  .00013485  00000-0  88278-3 0  9996,2 51958  53.0557 252.5299 0001423  88.9569 271.1584 15.08032194117767,6920.351,95.489,543.2,541.231,0.0
51958.0,STARLINK-3692,PAYLOAD,2024-04-16 14:52:02,15.08039775,0.0001291,53.0553,252.2313,85.8827,274.231,0.0018814,0.00029134,0.0,0 STARLINK-3692,1 51958U 22025C   24107.61947765  .00029134  00000-0  18814-2 0  9991,2 51958  53.0553 252.2313 0001291  85.8827 274.2310 15.08039775116686,6920.327,95.488,543.086,541.299,0.0
51958.0,STARLINK-3692,PAYLOAD,2024-04-16 16:27:28,15.08053126,0.0001222,53.055,251.9326,83.704,276.4089,0.0024455,0.00038016,0.0,0 STARLINK-3692,1 51958U 22025C   24107.68575103  .00038016  00000-0  24455-2 0  9998,2 51958  53.0550 251.9326 0001222  83.7040 276.4089 15.08053126117786,6920.287,95.487,542.997,541.306,0.0
51958.0,STARLINK-3692,PAYLOAD,2024-04-17 13:08:08,15.08033956,0.0001018,53.0535,248.0527,130.1616,229.9463,0.000692,0.00010505,0.0,0 STARLINK-3692,1 51958U 22025C   24108.54732534  .00010505  00000-0  69200-3 0  9998,2 51958  53.0535 248.0527 0001018 130.1616 229.9463 15.08033956117911,6920.345,95.489,542.915,541.506,0.0
51958.0,STARLINK-3692,PAYLOAD,2024-04-17 14:43:35,15.08043123,0.000133,53.0535,247.7557,115.0492,245.0635,0.00070134,0.00010653,0.0,0 STARLINK-3692,1 51958U 22025C   24108.61359982  .00010653  00000-0  70134-3 0  9990,2 51958  53.0535 247.7557 0001330 115.0492 245.0635 15.08043123116838,6920.317,95.488,543.103,541.262,0.0
51958.0,STARLINK-3692,PAYLOAD,2024-04-17 16:19:01,15.08039156,0.0001336,53.0534,247.456,112.9321,247.181,0.00086003,0.00013132,0.0,0 STARLINK-3692,1 51958U 22025C   24108.67987524  .00013132  00000-0  86003-3 0  9992,2 51958  53.0534 247.4560 0001336 112.9321 247.1810 15.08039156116841,6920.329,95.488,543.119,541.27,0.0
51958.0,STARLINK-3692,PAYLOAD,2024-04-18 16:10:33,15.08027928,0.0001678,53.0544,242.9835,122.1876,237.9276,0.00058787,8.877e-05,0.0,0 STARLINK-3692,1 51958U 22025C   24109.67400458  .00008877  00000-0  58787-3 0  9997,2 51958  53.0544 242.9835 0001678 122.1876 237.9276 15.08027928118089,6920.364,95.489,543.39,541.067,0.0
51958.0,STARLINK-3692,PAYLOAD,2024-04-19 14:26:39,15.08060558,0.0003025,53.0555,238.8103,37.2264,322.8935,0.0012444,0.00019157,0.0,0 STARLINK-3692,1 51958U 22025C   24110.60185004  .00019157  00000-0  12444-2 0  9991,2 51958  53.0555 238.8103 0003025  37.2264 322.8935 15.08060558117135,6920.264,95.487,544.222,540.035,0.0
